HORYU-4                 
1 41340U 16012D   20137.78885652  .00000311  00000-0  16761-4 0  9994
2 41340  31.0038 173.4348 0013876 194.5645 165.4592 15.01485930233116
E-ST@R-II               
1 41459U 16025D   20137.77700038  .00000953  00000-0  52338-4 0  9994
2 41459  98.0989 246.1213 0164186 318.6042  40.2859 15.06350727222670
AAUSAT 4                
1 41460U 16025E   20137.69681549  .00001098  00000-0  58035-4 0  9993
2 41460  98.0989 248.2557 0152661 307.9971  50.7552 15.08619526222856
BEESAT-4                
1 41619U 16040W   20137.71171868  .00000966  00000-0  42826-4 0  9991
2 41619  97.3217 197.9937 0009407 295.2586  64.7676 15.23938257204562
CANX-7                  
1 41788U 16059F   20137.68966971  .00005555  00000-0  77170-3 0  9999
2 41788  98.2518 224.7321 0026066  48.3109 312.0259 14.78060868195127
RAVAN                   
1 41849U 16067B   20137.75886687  .00000083  00000-0  12092-4 0  9993
2 41849  97.9290 247.0787 0008163 354.4327   5.6803 14.98530181191873
CELTEE 1                
1 41850U 16067C   20137.72507586  .00000311  00000-0  32202-4 0  9999
2 41850  97.9248 244.8644 0008815   6.1312 354.0015 14.97174842191754
OPTICUBE 04             
1 41851U 16067D   20137.71683873  .00000607  00000-0  58132-4 0  9991
2 41851  97.9234 244.4923 0008829   8.0679 352.0682 14.96918570191737
AEROCUBE 8D             
1 41852U 16067E   20137.53201364 -.00000231  00000-0 -14823-4 0  9997
2 41852  97.9242 244.1393 0009766   6.6558 353.4791 14.96898903191683
AEROCUBE 8C             
1 41853U 16067F   20137.69654279  .00000299  00000-0  31382-4 0  9993
2 41853  97.9229 244.2134 0009781   6.1013 354.0325 14.96857145191707
PROMETHEUS 2-1          
1 41854U 16067G   20137.60598589 -.00000300  00000-0 -20654-4 0  9991
2 41854  97.9246 244.4308 0010374   5.0498 355.0826 14.97173092191707
PROMETHEUS 2-3          
1 41855U 16067H   20137.74029891 -.00000302  00000-0 -20785-4 0  9999
2 41855  97.9248 244.5980 0010546   4.7347 355.3972 14.97183077191728
INS-1B                  
1 41954U 17008G   20137.45205203  .00000928  00000-0  40343-4 0  9990
2 41954  97.3560 202.4230 0010481  60.5870 299.6413 15.24712106180493
BGUSAT                  
1 41999U 17008BD  20137.63446229  .00001630  00000-0  63485-4 0  9997
2 41999  97.3671 206.5700 0009568  69.1651 291.0612 15.27387843180090
DIDO-2                  
1 42000U 17008BE  20137.73693579  .00000574  00000-0  26241-4 0  9999
2 42000  97.3569 203.2198 0010140  75.7404 284.4959 15.24431349179931
PEASSS                  
1 42015U 17008BV  20137.60664491  .00000840  00000-0  35920-4 0  9992
2 42015  97.3591 204.6282 0008025  80.1679 280.0465 15.25552965180490
AL-FARABI 1             
1 42016U 17008BW  20137.64518601  .00001122  00000-0  45877-4 0  9994
2 42016  97.3619 205.6586 0007887  79.6657 280.5470 15.26377359180678
NAYIF-1 (EO-88)         
1 42017U 17008BX  20137.75585768  .00001084  00000-0  44399-4 0  9990
2 42017  97.3614 205.7786 0007963  78.8347 281.3787 15.26417702180711
UCLSAT                  
1 42765U 17036A   20137.82750184  .00000887  00000-0  40061-4 0  9997
2 42765  97.3033 192.9149 0012665 132.0662 228.1655 15.23462530161767
LITUANICASAT-2          
1 42768U 17036D   20137.81552153  .00001596  00000-0  68650-4 0  9997
2 42768  97.3087 192.8275 0016271 124.1975 236.0808 15.23961444161029
AALTO-1                 
1 42775U 17036L   20137.82552441  .00000566  00000-0  27849-4 0  9997
2 42775  97.3010 190.8193 0015292 126.7538 233.5105 15.21798675160860
URSA MAIOR              
1 42776U 17036M   20137.81858985  .00000632  00000-0  30586-4 0  9995
2 42776  97.3022 191.0835 0015116 126.4866 233.7766 15.21977337160876
COMPASS 2               
1 42777U 17036N   20137.24399871  .00001257  00000-0  54923-4 0  9992
2 42777  97.3078 192.7008 0013784 126.3642 233.8870 15.23833619160893
DIAMOND RED             
1 42783U 17036U   20137.80784829  .00000738  00000-0  34471-4 0  9991
2 42783  97.3033 192.1961 0013319 134.1505 226.0829 15.22781830160931
PEGASUS                 
1 42784U 17036V   20137.78067994  .00000831  00000-0  38023-4 0  9997
2 42784  97.3038 192.5714 0013180 133.2640 226.9699 15.23153648160950
DIAMOND GREEN           
1 42785U 17036W   20137.80665033  .00000740  00000-0  34554-4 0  9993
2 42785  97.3036 192.2293 0013204 134.6954 225.5361 15.22781653161008
DIAMOND BLUE            
1 42786U 17036X   20137.80585519  .00000733  00000-0  34267-4 0  9997
2 42786  97.3035 192.2242 0013043 134.8289 225.4011 15.22781990161001
NUDTSAT                 
1 42787U 17036Y   20137.93016932  .00001615  00000-0  68587-4 0  9992
2 42787  97.3083 194.0393 0011433 125.2953 234.9350 15.24435845160899
SUCHAI                  
1 42788U 17036Z   20137.81623921  .00001013  00000-0  45029-4 0  9990
2 42788  97.3046 193.1652 0012776 131.5714 228.6621 15.23692243161060
SKCUBE                  
1 42789U 17036AA  20137.79340875  .00000938  00000-0  42081-4 0  9992
2 42789  97.3041 193.0052 0012648 131.9039 228.3279 15.23538949160978
VZLUSAT-1               
1 42790U 17036AB  20137.78763284  .00001235  00000-0  53127-4 0  9990
2 42790  97.3064 193.8967 0012222 129.7080 230.5237 15.24420969161026
ROBUSTA-1B              
1 42792U 17036AD  20137.61975325  .00000937  00000-0  41812-4 0  9991
2 42792  97.3043 193.0774 0012224 132.5476 227.6795 15.23724882160975
CICERO 6                
1 42793U 17036AE  20137.59334250  .00000643  00000-0  30143-4 0  9994
2 42793  97.3020 192.4997 0011453 134.5078 225.7097 15.23094247161019
D-SAT                   
1 42794U 17036AF  20137.83907847  .00000271  00000-0  28498-4 0  9997
2 42794  97.4962 172.0570 0127764 110.3257 251.1744 14.91265036157984
CORVUS BC2              
1 42846U 17042X   20137.72085553 -.00000050  00000-0  30226-6 0  9991
2 42846  97.5272  22.7026 0010437  32.1679 328.0175 14.92096478154679
CORVUS BC1              
1 42847U 17042Y   20137.71870050 -.00000006  00000-0  45934-5 0  9997
2 42847  97.5276  22.8641 0010085  31.7145 328.4680 14.92197766154677
MIRATA                  
1 43015U 17073C   20137.82313909  .00000468  00000-0  41314-4 0  9994
2 43015  97.7204  51.2424 0254010 151.4676 210.0715 14.79593973134544
MAKERSAT 0              
1 43016U 17073D   20137.70765850  .00000314  00000-0  29497-4 0  9996
2 43016  97.7240  51.3176 0256743 152.8318 208.6601 14.79176347134519
DELLINGR (RBLE)         
1 43021U 98067NJ  20137.86940164  .00009747  00000-0  84149-4 0  9998
2 43021  51.6356  81.1533 0000915   0.2321 359.8677 15.69983845141900
AEROCUBE 7B (OCSD B)    
1 43042U 17071F   20137.70638903  .00002151  00000-0  56571-4 0  9995
2 43042  51.6373 222.3204 0004124 293.6279  66.4274 15.43415217137478
AEROCUBE 7C (OCSD C)    
1 43043U 17071G   20137.83873602  .00002178  00000-0  57215-4 0  9992
2 43043  51.6375 221.7190 0004375 298.6448  61.4098 15.43390549137467
CHEFSAT                 
1 43044U 17071H   20137.79418074  .00004224  00000-0  87799-4 0  9990
2 43044  51.6376 208.1804 0004370 306.2210  53.8374 15.47966938137645
ASGARDIA 1              
1 43049U 17071N   20137.83311658  .00002070  00000-0  54711-4 0  9995
2 43049  51.6385 221.0010 0002144 320.4227  39.6602 15.43444338137463
ISARA                   
1 43050U 17071P   20137.69168196  .00003653  00000-0  79488-4 0  9994
2 43050  51.6359 211.1332 0002273 322.3551  37.7277 15.47039372137590
PROPCUBE 2 (FAUNA)      
1 43052U 17071R   20137.63426084  .00002216  00000-0  57113-4 0  9998
2 43052  51.6380 220.4411 0002090 316.3676  43.7145 15.43881639137458
CORVUS BC3              
1 43118U 18004H   20137.83145257  .00000571  00000-0  27009-4 0  9993
2 43118  97.4452 208.3600 0010996 155.3051 204.8715 15.23322448130188
MICROMAS-2A             
1 43131U 18004W   20137.63245202  .00001367  00000-0  57328-4 0  9998
2 43131  97.4498 209.7821 0009950 154.0694 206.1045 15.25188685130243
SPACEBEE-4              
1 43139U 18004AE  20137.62719700  .00001985  00000-0  78988-4 0  9995
2 43139  97.4530 210.8822 0009412 154.1534 206.0177 15.26431917130301
SPACEBEE-3              
1 43140U 18004AF  20137.78651531  .00002519  00000-0  96951-4 0  9995
2 43140  97.4543 211.6776 0009241 151.9882 208.1856 15.27294806130363
SPACEBEE-2              
1 43141U 18004AG  20137.77230022  .00002618  00000-0  99739-4 0  9990
2 43141  97.4558 211.9019 0009238 151.4747 208.6999 15.27588617130374
SPACEBEE-1              
1 43142U 18004AH  20137.74729649  .00002861  00000-0  10765-3 0  9997
2 43142  97.4562 212.1188 0009224 151.3015 208.8734 15.27929497130376
CICERO 7                
1 43143U 18004AJ  20137.83131712  .00001187  00000-0  50100-4 0  9994
2 43143  97.4477 210.1689 0007927 159.9125 200.2427 15.25242891130290
GOMX-4B                 
1 43196U 18015E   20137.51179395  .00000412  00000-0  19786-4 0  9993
2 43196  97.4315 266.3003 0017830 214.6151 145.3920 15.24232228127031
GOMX-4A                 
1 43197U 18015F   20137.81708722  .00000565  00000-0  25898-4 0  9999
2 43197  97.4319 266.6829 0018095 211.8213 294.4966 15.24462075127094
1KUNS-PF                
1 43466U 98067NP  20137.81226809  .00191270  26395-4  37510-3 0  9990
2 43466  51.6249  58.5374 0003004 139.8310 220.2922 15.99725571115452
UBAKUSAT                
1 43467U 98067NQ  20137.55802745  .00018798  00000-0  13360-3 0  9992
2 43467  51.6322  85.7088 0000951  59.4672 300.6421 15.73932398115080
CUBERRT                 
1 43546U 98067NU  20137.55431940  .00008143  00000-0  64376-4 0  9992
2 43546  51.6343  84.9636 0003063 354.2343   5.8620 15.72410837105227
TEMPEST-D               
1 43547U 98067NV  20137.42987709  .00003919  00000-0  49678-4 0  9992
2 43547  51.6359 113.5068 0004378 304.7491  55.3090 15.62155493104512
RAINCUBE                
1 43548U 98067NW  20137.82768338  .00019084  00000-0  14265-3 0  9995
2 43548  51.6329  92.0094 0003714 357.6769   2.4212 15.72728581105287
